H1 CPF 01  gfz 2022 04 03 12  5932 tandemx   
H2 1003001  6202 36605    2022 04 03 12 59 42 2022 04 08 00 00 42   120 1 1  0 0 0
H9
10 0 59674  72702.000000  0    5738100.189  -3393606.911  -1747655.197
10 0 59674  72822.000000  0    5790202.584  -3635501.100   -859803.066
10 0 59674  72942.000000  0    5737510.930  -3813901.062     43169.826
10 0 59674  73062.000000  0    5582039.211  -3923833.652    945381.953
10 0 59674  73182.000000  0    5327694.551  -3961584.421   1830948.825
10 0 59674  73302.000000  0    4980186.323  -3924797.323   2684272.827
10 0 59674  73422.000000  0    4546898.878  -3812546.130   3490325.520
10 0 59674  73542.000000  0    4036733.019  -3625376.842   4234918.372
10 0 59674  73662.000000  0    3459919.061  -3365320.620   4904957.168
10 0 59674  73782.000000  0    2827804.487  -3035875.194   5488673.576
10 0 59674  73902.000000  0    2152625.197  -2641956.218   5975829.740
10 0 59674  74022.000000  0    1447263.162  -2189820.680   6357893.654
10 0 59674  74142.000000  0     724996.928  -1686964.349   6628182.513
10 0 59674  74262.000000  0       -750.324  -1141994.683   6781973.661
10 0 59674  74382.000000  0    -716660.413   -564481.546   6816581.790
10 0 59674  74502.000000  0   -1409763.546     35211.351   6731402.283
10 0 59674  74622.000000  0   -2067672.377    646112.081   6527921.186
10 0 59674  74742.000000  0   -2678802.928   1256840.556   6209691.034
10 0 59674  74862.000000  0   -3232579.283   1855819.576   5782272.852
10 0 59674  74982.000000  0   -3719619.248   2431494.060   5253145.410
10 0 59674  75102.000000  0   -4131898.095   2972555.545   4631580.637
10 0 59674  75222.000000  0   -4462886.369   3468166.674   3928486.138
10 0 59674  75342.000000  0   -4707659.577   3908180.997   3156217.091
10 0 59674  75462.000000  0   -4862975.845   4283353.993   2328359.996
10 0 59674  75582.000000  0   -4927320.454   4585541.218   1459492.149
10 0 59674  75702.000000  0   -4900914.974   4807876.705    564919.208
10 0 59674  75822.000000  0   -4785691.414   4944925.955   -339601.480
10 0 59674  75942.000000  0   -4585232.704   4992812.498  -1238147.063
10 0 59674  76062.000000  0   -4304677.151   4949312.915  -2114920.247
10 0 59674  76182.000000  0   -3950592.222   4813917.112  -2954534.442
10 0 59674  76302.000000  0   -3530821.540   4587853.017  -3742289.849
10 0 59674  76422.000000  0   -3054307.972   4274075.762  -4464431.647
10 0 59674  76542.000000  0   -2530899.700   3877223.350  -5108386.197
10 0 59674  76662.000000  0   -1971144.802   3403541.828  -5662972.511
10 0 59674  76782.000000  0   -1386077.565   2860780.504  -6118588.164
10 0 59674  76902.000000  0    -787000.649   2258058.595  -6467365.087
10 0 59674  77022.000000  0    -185268.626   1605708.292  -6703293.256
10 0 59674  77142.000000  0     407922.923    915097.216  -6822313.630
10 0 59674  77262.000000  0     981740.284    198433.140  -6822381.147
10 0 59674  77382.000000  0    1525905.581   -531447.815  -6703496.344
10 0 59674  77502.000000  0    2030876.014  -1261305.795  -6467703.717
10 0 59674  77622.000000  0    2488007.478  -1977730.846  -6119060.612
10 0 59674  77742.000000  0    2889701.052  -2667383.102  -5663575.254
10 0 59674  77862.000000  0    3229530.637  -3317238.536  -5109115.528
10 0 59674  77982.000000  0    3502349.224  -3914836.122  -4465282.970
10 0 59674  78102.000000  0    3704369.130  -4448517.626  -3743256.041
10 0 59674  78222.000000  0    3833217.745  -4907658.623  -2955606.680
10 0 59674  78342.000000  0    3887967.496  -5282887.081  -2116088.824
10 0 59674  78462.000000  0    3869135.981  -5566282.535  -1239400.145
10 0 59674  78582.000000  0    3778657.153  -5751549.190   -340923.439
10 0 59674  78702.000000  0    3619823.068  -5834159.653    563548.653
10 0 59674  78822.000000  0    3397197.295  -5811464.302   1458098.205
10 0 59674  78942.000000  0    3116503.014  -5682763.531   2326971.996
10 0 59674  79062.000000  0    2784486.144  -5449338.552   3154867.984
10 0 59674  79182.000000  0    2408759.011  -5114443.356   3927211.200
10 0 59674  79302.000000  0    1997629.500  -4683257.345   4630415.192
10 0 59674  79422.000000  0    1559918.574  -4162799.230   5252123.500
10 0 59674  79542.000000  0    1104771.913  -3561805.292   5781426.657
10 0 59674  79662.000000  0     641467.784  -2890573.780   6209050.818
10 0 59674  79782.000000  0     179227.676  -2160781.237   6527513.497
10 0 59674  79902.000000  0    -272966.242  -1385274.919   6731247.510
10 0 59674  80022.000000  0    -706544.275   -577844.861   6816693.509
10 0 59674  80142.000000  0   -1113510.483    247022.919   6782359.002
10 0 59674  80262.000000  0   -1486589.623   1074406.400   6628842.517
10 0 59674  80382.000000  0   -1819356.845   1889216.787   6358823.528
10 0 59674  80502.000000  0   -2106348.915   2676473.037   5977018.743
10 0 59674  80622.000000  0   -2343154.675   3421577.997   5490104.438
10 0 59674  80742.000000  0   -2526483.660   4110591.245   4906606.220
10 0 59674  80862.000000  0   -2654212.557   4730495.204   4236756.234
10 0 59674  80982.000000  0   -2725407.140   5269448.318   3492318.089
10 0 59674  81102.000000  0   -2740319.209   5717019.558   2686381.741
10 0 59674  81222.000000  0   -2700358.369   6064398.036   1833132.307
10 0 59674  81342.000000  0   -2608039.597   6304573.584    947596.949
10 0 59674  81462.000000  0   -2466906.967   6432483.479     45374.290
10 0 59674  81582.000000  0   -2281436.003   6445121.402   -857648.329
10 0 59674  81702.000000  0   -2056917.222   6341605.898  -1745584.848
10 0 59674  81822.000000  0   -1799321.870   6123202.478  -2602841.477
10 0 59674  81942.000000  0   -1515154.699   5793300.484  -3414395.342
10 0 59674  82062.000000  0   -1211299.776   5357351.313  -4166059.007
10 0 59674  82182.000000  0    -894862.096   4822766.487  -4844727.442
10 0 59674  82302.000000  0    -573008.710   4198780.260  -5438600.913
10 0 59674  82422.000000  0    -252812.678   3496280.472  -5937383.006
10 0 59674  82542.000000  0      58897.006   2727609.683  -6332449.747
10 0 59674  82662.000000  0     355675.446   1906342.459  -6616986.495
10 0 59674  82782.000000  0     631589.634   1047045.345  -6786094.554
10 0 59674  82902.000000  0     881332.751    165020.643  -6836867.058
10 0 59674  83022.000000  0    1100322.716   -723961.409  -6768433.223
10 0 59674  83142.000000  0    1284783.524  -1603938.383  -6581970.173
10 0 59674  83262.000000  0    1431808.681  -2459033.885  -6280684.250
10 0 59674  83382.000000  0    1539407.010  -3273736.958  -5869763.402
10 0 59674  83502.000000  0    1606528.776  -4033181.354  -5356298.637
10 0 59674  83622.000000  0    1633071.802  -4723417.831  -4749171.369
10 0 59674  83742.000000  0    1619868.350  -5331672.544  -4058910.731
10 0 59674  83862.000000  0    1568651.712  -5846591.161  -3297522.200
10 0 59674  83982.000000  0    1482002.293  -6258461.209  -2478286.246
10 0 59674  84102.000000  0    1363275.749  -6559406.758  -1615530.807
10 0 59674  84222.000000  0    1216513.870  -6743550.826   -724381.144
10 0 59674  84342.000000  0    1046338.686  -6807140.980    179508.841
10 0 59674  84462.000000  0     857834.705  -6748632.850   1080237.881
10 0 59674  84582.000000  0     656420.272  -6568730.616   1961945.168
10 0 59674  84702.000000  0     447712.702  -6270381.905   2809099.871
10 0 59674  84822.000000  0     237389.350  -5858725.330   3606783.973
10 0 59674  84942.000000  0      31048.191  -5340994.227   4340960.121
10 0 59674  85062.000000  0    -165927.296  -4726381.336   4998721.625
10 0 59674  85182.000000  0    -348496.134  -4025865.405   5568519.937
10 0 59674  85302.000000  0    -512077.346  -3252005.408   6040365.685
10 0 59674  85422.000000  0    -652655.081  -2418705.326   6405999.109
10 0 59674  85542.000000  0    -766869.064  -1540958.437   6659026.657
10 0 59674  85662.000000  0    -852088.744   -634575.517   6795027.165
10 0 59674  85782.000000  0    -906470.397    284101.478   6811625.655
10 0 59674  85902.000000  0    -928995.576   1198494.435   6708532.270
10 0 59674  86022.000000  0    -919489.613   2092087.871   6487546.842
10 0 59674  86142.000000  0    -878620.804   2948726.788   6152529.355
10 0 59674  86262.000000  0    -807880.629   3752909.497   5709336.891
10 0 59674  86382.000000  0    -709544.819   4490071.006   5165726.300
10 0 59675    102.000000  0    -586615.980   5146851.641   4531224.943
10 0 59675    222.000000  0    -442749.075   5711347.950   3816968.322
10 0 59675    342.000000  0    -282160.246   6173335.380   3035507.868
10 0 59675    462.000000  0    -109523.419   6524466.244   2200593.902
10 0 59675    582.000000  0      70146.558   6758431.796   1326927.698
10 0 59675    702.000000  0     251620.520   6871081.433    429897.047
10 0 59675    822.000000  0     429586.930   6860501.147   -474701.896
10 0 59675    942.000000  0     598786.807   6727046.637  -1370952.255
10 0 59675   1062.000000  0     754146.017   6473329.309  -2243105.144
10 0 59675   1182.000000  0     890902.659   6104158.227  -3075862.825
10 0 59675   1302.000000  0    1004727.492   5626439.345  -3854651.124
10 0 59675   1422.000000  0    1091833.964   5049034.642  -4565875.674
10 0 59675   1542.000000  0    1149075.216   4382585.074  -5197156.459
10 0 59675   1662.000000  0    1174025.911   3639303.010  -5737536.308
10 0 59675   1782.000000  0    1165046.881   2832739.878  -6177662.082
10 0 59675   1902.000000  0    1121331.942   1977532.684  -6509935.318
10 0 59675   2022.000000  0    1042936.110   1089137.295  -6728631.116
10 0 59675   2142.000000  0     930785.040    183551.628  -6829987.667
10 0 59675   2262.000000  0     786665.798   -722967.978  -6812263.775
10 0 59675   2382.000000  0     613198.453  -1614192.251  -6675764.132
10 0 59675   2502.000000  0     413789.906  -2474200.786  -6422833.618
10 0 59675   2622.000000  0     192570.153  -3287659.436  -6057823.745
10 0 59675   2742.000000  0     -45689.345  -4040091.547  -5587026.051
99
